STARLINK-36579          
1 67541U 26014K   26047.67916810  .00167775  00000+0  11013-2 0  9993
2 67541  97.2836 291.5401 0001670  65.2783 294.8656 15.75240837  5262
STARLINK-35934          
1 67542U 26014L   26047.83939486  .00247715  00000+0  12515-2 0  9997
2 67542  97.2836 291.7828 0001857 111.7474 248.3992 15.80921695  5282
STARLINK-36581          
1 67543U 26014M   26047.83337963 -.00151306  00000+0 -10296-2 0  9996
2 67543  97.2843 291.7637 0001414  99.1815 202.8034 15.75234726  5330
STARLINK-36565          
1 67544U 26014N   26047.83337963 -.00109114  00000+0 -73882-3 0  9998
2 67544  97.2847 291.7511 0001221 111.8597 156.1216 15.75228419  5336
STARLINK-36583          
1 67545U 26014P   26047.61951008  .00244912  00000+0  15854-2 0  9995
2 67545  97.2841 291.4663 0000964 104.4565 255.6807 15.75347416  5253
STARLINK-36580          
1 67546U 26014Q   26047.79210965  .00181434  00000+0  11873-2 0  9991
2 67546  97.2842 291.6915 0002133 124.6220 235.5247 15.75272581  5287
STARLINK-36584          
1 67547U 26014R   26047.83337963 -.00133493  00000+0 -90551-3 0  9990
2 67547  97.2849 291.7769 0001273  93.2158 240.7290 15.75257507  5331
STARLINK-36586          
1 67548U 26014S   26047.83238391  .00401652  00000+0  19817-2 0  9994
2 67548  97.2829 291.7913 0000744 111.0989 249.0359 15.81045283  5290
STARLINK-36564          
1 67549U 26014T   26047.80022305  .00213162  00000+0  13899-2 0  9999
2 67549  97.2838 291.6804 0001208  73.6970 286.4428 15.75269060  5227
STARLINK-36563          
1 67550U 26014U   26047.66893684  .00181260  00000+0  11882-2 0  9994
2 67550  97.2842 291.5524 0001461  60.0031 300.1379 15.75233963  5267
STARLINK-36566          
1 67551U 26014V   26047.73034491  .00155783  00000+0  10244-2 0  9998
2 67551  97.2846 291.6214 0002326 104.0782 256.0742 15.75233075  5269
STARLINK-36567          
1 67552U 26014W   26047.80234601  .00209290  00000+0  13677-2 0  9998
2 67552  97.2850 291.6739 0001258  81.1837 278.9571 15.75228347  5276
