CCSDS_OMM_VERS = 2.0
CREATION_DATE  = 
ORIGINATOR     = 

OBJECT_NAME    = STARLINK-36579
OBJECT_ID      = 2026-014K
CENTER_NAME    = EARTH
REF_FRAME      = TEME
TIME_SYSTEM    = UTC
MEAN_ELEMENT_THEORY = SGP/SGP4

EPOCH          = 2026-02-16T16:18:00.123840
MEAN_MOTION    = 15.75240837
ECCENTRICITY   = .000167
INCLINATION    = 97.2836
RA_OF_ASC_NODE = 291.5401
ARG_OF_PERICENTER = 65.2783
MEAN_ANOMALY   = 294.8656

EPHEMERIS_TYPE = 0
CLASSIFICATION_TYPE = U
NORAD_CAT_ID   = 67541
ELEMENT_SET_NO = 999
REV_AT_EPOCH   = 526
BSTAR          = .11013E-2
MEAN_MOTION_DOT = .167775E-2
MEAN_MOTION_DDOT = 0

CCSDS_OMM_VERS = 2.0
CREATION_DATE  = 
ORIGINATOR     = 

OBJECT_NAME    = STARLINK-35934
OBJECT_ID      = 2026-014L
CENTER_NAME    = EARTH
REF_FRAME      = TEME
TIME_SYSTEM    = UTC
MEAN_ELEMENT_THEORY = SGP/SGP4

EPOCH          = 2026-02-16T20:08:43.715904
MEAN_MOTION    = 15.80921695
ECCENTRICITY   = .0001857
INCLINATION    = 97.2836
RA_OF_ASC_NODE = 291.7828
ARG_OF_PERICENTER = 111.7474
MEAN_ANOMALY   = 248.3992

EPHEMERIS_TYPE = 0
CLASSIFICATION_TYPE = U
NORAD_CAT_ID   = 67542
ELEMENT_SET_NO = 999
REV_AT_EPOCH   = 528
BSTAR          = .12515E-2
MEAN_MOTION_DOT = .247715E-2
MEAN_MOTION_DDOT = 0

CCSDS_OMM_VERS = 2.0
CREATION_DATE  = 
ORIGINATOR     = 

OBJECT_NAME    = STARLINK-36581
OBJECT_ID      = 2026-014M
CENTER_NAME    = EARTH
REF_FRAME      = TEME
TIME_SYSTEM    = UTC
MEAN_ELEMENT_THEORY = SGP/SGP4

EPOCH          = 2026-02-16T20:00:04.000032
MEAN_MOTION    = 15.75234726
ECCENTRICITY   = .0001414
INCLINATION    = 97.2843
RA_OF_ASC_NODE = 291.7637
ARG_OF_PERICENTER = 99.1815
MEAN_ANOMALY   = 202.8034

EPHEMERIS_TYPE = 0
CLASSIFICATION_TYPE = U
NORAD_CAT_ID   = 67543
ELEMENT_SET_NO = 999
REV_AT_EPOCH   = 533
BSTAR          = -.10296E-2
MEAN_MOTION_DOT = -.151306E-2
MEAN_MOTION_DDOT = 0

CCSDS_OMM_VERS = 2.0
CREATION_DATE  = 
ORIGINATOR     = 

OBJECT_NAME    = STARLINK-36565
OBJECT_ID      = 2026-014N
CENTER_NAME    = EARTH
REF_FRAME      = TEME
TIME_SYSTEM    = UTC
MEAN_ELEMENT_THEORY = SGP/SGP4

EPOCH          = 2026-02-16T20:00:04.000032
MEAN_MOTION    = 15.75228419
ECCENTRICITY   = .0001221
INCLINATION    = 97.2847
RA_OF_ASC_NODE = 291.7511
ARG_OF_PERICENTER = 111.8597
MEAN_ANOMALY   = 156.1216

EPHEMERIS_TYPE = 0
CLASSIFICATION_TYPE = U
NORAD_CAT_ID   = 67544
ELEMENT_SET_NO = 999
REV_AT_EPOCH   = 533
BSTAR          = -.73882E-3
MEAN_MOTION_DOT = -.109114E-2
MEAN_MOTION_DDOT = 0

CCSDS_OMM_VERS = 2.0
CREATION_DATE  = 
ORIGINATOR     = 

OBJECT_NAME    = STARLINK-36583
OBJECT_ID      = 2026-014P
CENTER_NAME    = EARTH
REF_FRAME      = TEME
TIME_SYSTEM    = UTC
MEAN_ELEMENT_THEORY = SGP/SGP4

EPOCH          = 2026-02-16T14:52:05.670912
MEAN_MOTION    = 15.75347416
ECCENTRICITY   = .0000964
INCLINATION    = 97.2841
RA_OF_ASC_NODE = 291.4663
ARG_OF_PERICENTER = 104.4565
MEAN_ANOMALY   = 255.6807

EPHEMERIS_TYPE = 0
CLASSIFICATION_TYPE = U
NORAD_CAT_ID   = 67545
ELEMENT_SET_NO = 999
REV_AT_EPOCH   = 525
BSTAR          = .15854E-2
MEAN_MOTION_DOT = .244912E-2
MEAN_MOTION_DDOT = 0

CCSDS_OMM_VERS = 2.0
CREATION_DATE  = 
ORIGINATOR     = 

OBJECT_NAME    = STARLINK-36580
OBJECT_ID      = 2026-014Q
CENTER_NAME    = EARTH
REF_FRAME      = TEME
TIME_SYSTEM    = UTC
MEAN_ELEMENT_THEORY = SGP/SGP4

EPOCH          = 2026-02-16T19:00:38.273760
MEAN_MOTION    = 15.75272581
ECCENTRICITY   = .0002133
INCLINATION    = 97.2842
RA_OF_ASC_NODE = 291.6915
ARG_OF_PERICENTER = 124.6220
MEAN_ANOMALY   = 235.5247

EPHEMERIS_TYPE = 0
CLASSIFICATION_TYPE = U
NORAD_CAT_ID   = 67546
ELEMENT_SET_NO = 999
REV_AT_EPOCH   = 528
BSTAR          = .11873E-2
MEAN_MOTION_DOT = .181434E-2
MEAN_MOTION_DDOT = 0

CCSDS_OMM_VERS = 2.0
CREATION_DATE  = 
ORIGINATOR     = 

OBJECT_NAME    = STARLINK-36584
OBJECT_ID      = 2026-014R
CENTER_NAME    = EARTH
REF_FRAME      = TEME
TIME_SYSTEM    = UTC
MEAN_ELEMENT_THEORY = SGP/SGP4

EPOCH          = 2026-02-16T20:00:04.000032
MEAN_MOTION    = 15.75257507
ECCENTRICITY   = .0001273
INCLINATION    = 97.2849
RA_OF_ASC_NODE = 291.7769
ARG_OF_PERICENTER = 93.2158
MEAN_ANOMALY   = 240.7290

EPHEMERIS_TYPE = 0
CLASSIFICATION_TYPE = U
NORAD_CAT_ID   = 67547
ELEMENT_SET_NO = 999
REV_AT_EPOCH   = 533
BSTAR          = -.90551E-3
MEAN_MOTION_DOT = -.133493E-2
MEAN_MOTION_DDOT = 0

CCSDS_OMM_VERS = 2.0
CREATION_DATE  = 
ORIGINATOR     = 

OBJECT_NAME    = STARLINK-36586
OBJECT_ID      = 2026-014S
CENTER_NAME    = EARTH
REF_FRAME      = TEME
TIME_SYSTEM    = UTC
MEAN_ELEMENT_THEORY = SGP/SGP4

EPOCH          = 2026-02-16T19:58:37.969824
MEAN_MOTION    = 15.81045283
ECCENTRICITY   = .0000744
INCLINATION    = 97.2829
RA_OF_ASC_NODE = 291.7913
ARG_OF_PERICENTER = 111.0989
MEAN_ANOMALY   = 249.0359

EPHEMERIS_TYPE = 0
CLASSIFICATION_TYPE = U
NORAD_CAT_ID   = 67548
ELEMENT_SET_NO = 999
REV_AT_EPOCH   = 529
BSTAR          = .19817E-2
MEAN_MOTION_DOT = .401652E-2
MEAN_MOTION_DDOT = 0

CCSDS_OMM_VERS = 2.0
CREATION_DATE  = 
ORIGINATOR     = 

OBJECT_NAME    = STARLINK-36564
OBJECT_ID      = 2026-014T
CENTER_NAME    = EARTH
REF_FRAME      = TEME
TIME_SYSTEM    = UTC
MEAN_ELEMENT_THEORY = SGP/SGP4

EPOCH          = 2026-02-16T19:12:19.271520
MEAN_MOTION    = 15.75269060
ECCENTRICITY   = .0001208
INCLINATION    = 97.2838
RA_OF_ASC_NODE = 291.6804
ARG_OF_PERICENTER = 73.6970
MEAN_ANOMALY   = 286.4428

EPHEMERIS_TYPE = 0
CLASSIFICATION_TYPE = U
NORAD_CAT_ID   = 67549
ELEMENT_SET_NO = 999
REV_AT_EPOCH   = 522
BSTAR          = .13899E-2
MEAN_MOTION_DOT = .213162E-2
MEAN_MOTION_DDOT = 0

CCSDS_OMM_VERS = 2.0
CREATION_DATE  = 
ORIGINATOR     = 

OBJECT_NAME    = STARLINK-36563
OBJECT_ID      = 2026-014U
CENTER_NAME    = EARTH
REF_FRAME      = TEME
TIME_SYSTEM    = UTC
MEAN_ELEMENT_THEORY = SGP/SGP4

EPOCH          = 2026-02-16T16:03:16.142976
MEAN_MOTION    = 15.75233963
ECCENTRICITY   = .0001461
INCLINATION    = 97.2842
RA_OF_ASC_NODE = 291.5524
ARG_OF_PERICENTER = 60.0031
MEAN_ANOMALY   = 300.1379

EPHEMERIS_TYPE = 0
CLASSIFICATION_TYPE = U
NORAD_CAT_ID   = 67550
ELEMENT_SET_NO = 999
REV_AT_EPOCH   = 526
BSTAR          = .11882E-2
MEAN_MOTION_DOT = .18126E-2
MEAN_MOTION_DDOT = 0

CCSDS_OMM_VERS = 2.0
CREATION_DATE  = 
ORIGINATOR     = 

OBJECT_NAME    = STARLINK-36566
OBJECT_ID      = 2026-014V
CENTER_NAME    = EARTH
REF_FRAME      = TEME
TIME_SYSTEM    = UTC
MEAN_ELEMENT_THEORY = SGP/SGP4

EPOCH          = 2026-02-16T17:31:41.800224
MEAN_MOTION    = 15.75233075
ECCENTRICITY   = .0002326
INCLINATION    = 97.2846
RA_OF_ASC_NODE = 291.6214
ARG_OF_PERICENTER = 104.0782
MEAN_ANOMALY   = 256.0742

EPHEMERIS_TYPE = 0
CLASSIFICATION_TYPE = U
NORAD_CAT_ID   = 67551
ELEMENT_SET_NO = 999
REV_AT_EPOCH   = 526
BSTAR          = .10244E-2
MEAN_MOTION_DOT = .155783E-2
MEAN_MOTION_DDOT = 0

CCSDS_OMM_VERS = 2.0
CREATION_DATE  = 
ORIGINATOR     = 

OBJECT_NAME    = STARLINK-36567
OBJECT_ID      = 2026-014W
CENTER_NAME    = EARTH
REF_FRAME      = TEME
TIME_SYSTEM    = UTC
MEAN_ELEMENT_THEORY = SGP/SGP4

EPOCH          = 2026-02-16T19:15:22.695264
MEAN_MOTION    = 15.75228347
ECCENTRICITY   = .0001258
INCLINATION    = 97.2850
RA_OF_ASC_NODE = 291.6739
ARG_OF_PERICENTER = 81.1837
MEAN_ANOMALY   = 278.9571

EPHEMERIS_TYPE = 0
CLASSIFICATION_TYPE = U
NORAD_CAT_ID   = 67552
ELEMENT_SET_NO = 999
REV_AT_EPOCH   = 527
BSTAR          = .13677E-2
MEAN_MOTION_DOT = .20929E-2
MEAN_MOTION_DDOT = 0

